start=new Date('2022-10-31T00:00:00.000Z').valueOf();
sats=[{"SEMIMAJOR_AXIS":"6941.094","EPOCH":"2022-10-30T22:00:01.999584","CLASSIFICATION_TYPE":"U","OBJECT_TYPE":"PAYLOAD","OBJECT_ID":"2022-099AM","DECAY_DATE":null,"BSTAR":"-0.00565400000000","ELEMENT_SET_NO":"999","SITE":"AFWTR","MEAN_MOTION":"15.01277070","LAUNCH_DATE":"2022-08-12","TIME_SYSTEM":"UTC","REV_AT_EPOCH":"130","OBJECT_NAME":"STARLINK-4455","NORAD_CAT_ID":"53500","APOAPSIS":"565.142","FILE":"3637924","GP_ID":"216532162","TLE_LINE2":"2 53500  97.6564  63.2842 0003145  25.3801 195.8769 15.01277070  1308","COUNTRY_CODE":"US","TLE_LINE1":"1 53500U 22099AM  22303.91668981 -.00071985  00000-0 -56540-2 0  9997","RA_OF_ASC_NODE":"63.2842","REF_FRAME":"TEME","ECCENTRICITY":"0.00031450","MEAN_MOTION_DDOT":"0.0000000000000","MEAN_MOTION_DOT":"-0.00071985","RCS_SIZE":"LARGE","PERIAPSIS":"560.776","EPHEMERIS_TYPE":"0","ARG_OF_PERICENTER":"25.3801","MEAN_ELEMENT_THEORY":"SGP4","MEAN_ANOMALY":"195.8769","PERIOD":"95.918","INCLINATION":"97.6564","CENTER_NAME":"EARTH"},{"BSTAR":"-0.00278350000000","OBJECT_ID":"2022-099AN","DECAY_DATE":null,"OBJECT_TYPE":"PAYLOAD","CLASSIFICATION_TYPE":"U","SEMIMAJOR_AXIS":"6941.151","EPOCH":"2022-10-30T22:00:01.999584","APOAPSIS":"564.871","NORAD_CAT_ID":"53501","REV_AT_EPOCH":"130","OBJECT_NAME":"STARLINK-4434","ELEMENT_SET_NO":"999","SITE":"AFWTR","MEAN_MOTION":"15.01258778","TIME_SYSTEM":"UTC","LAUNCH_DATE":"2022-08-12","RA_OF_ASC_NODE":"63.2828","TLE_LINE1":"1 53501U 22099AN  22303.91668981 -.00035632  00000-0 -27835-2 0  9992","FILE":"3637924","TLE_LINE2":"2 53501  97.6554  63.2828 0002673  40.2021 220.9971 15.01258778  1306","COUNTRY_CODE":"US","GP_ID":"216531671","PERIOD":"95.920","INCLINATION":"97.6554","MEAN_ANOMALY":"220.9971","CENTER_NAME":"EARTH","ARG_OF_PERICENTER":"40.2021","EPHEMERIS_TYPE":"0","MEAN_ELEMENT_THEORY":"SGP4","ECCENTRICITY":"0.00026730","RCS_SIZE":"LARGE","PERIAPSIS":"561.160","MEAN_MOTION_DDOT":"0.0000000000000","MEAN_MOTION_DOT":"-0.00035632","REF_FRAME":"TEME"},{"CENTER_NAME":"EARTH","PERIOD":"95.919","MEAN_ANOMALY":"204.0192","INCLINATION":"97.6570","MEAN_ELEMENT_THEORY":"SGP4","EPHEMERIS_TYPE":"0","ARG_OF_PERICENTER":"37.1970","MEAN_MOTION_DDOT":"0.0000000000000","MEAN_MOTION_DOT":"-0.00025203","PERIAPSIS":"561.173","RCS_SIZE":"LARGE","ECCENTRICITY":"0.00026510","REF_FRAME":"TEME","RA_OF_ASC_NODE":"63.2847","TLE_LINE1":"1 53502U 22099AP  22303.91668981 -.00025203  00000-0 -19645-2 0  9996","GP_ID":"216532005","COUNTRY_CODE":"US","TLE_LINE2":"2 53502  97.6570  63.2847 0002651  37.1970 204.0192 15.01259582  1302","FILE":"3637924","APOAPSIS":"564.853","NORAD_CAT_ID":"53502","OBJECT_NAME":"STARLINK-4435","REV_AT_EPOCH":"130","LAUNCH_DATE":"2022-08-12","TIME_SYSTEM":"UTC","SITE":"AFWTR","MEAN_MOTION":"15.01259582","ELEMENT_SET_NO":"999","BSTAR":"-0.00196450000000","DECAY_DATE":null,"OBJECT_ID":"2022-099AP","CLASSIFICATION_TYPE":"U","OBJECT_TYPE":"PAYLOAD","EPOCH":"2022-10-30T22:00:01.999584","SEMIMAJOR_AXIS":"6941.148"},{"RA_OF_ASC_NODE":"63.2826","FILE":"3637924","GP_ID":"216531835","COUNTRY_CODE":"US","TLE_LINE2":"2 53503  97.6574  63.2826 0002372  40.3617 230.8854 15.01259510  1301","TLE_LINE1":"1 53503U 22099AQ  22303.91668981 -.00022308  00000-0 -17376-2 0  9999","EPHEMERIS_TYPE":"0","ARG_OF_PERICENTER":"40.3617","MEAN_ELEMENT_THEORY":"SGP4","PERIOD":"95.919","INCLINATION":"97.6574","MEAN_ANOMALY":"230.8854","CENTER_NAME":"EARTH","REF_FRAME":"TEME","ECCENTRICITY":"0.00023720","MEAN_MOTION_DDOT":"0.0000000000000","MEAN_MOTION_DOT":"-0.00022308","RCS_SIZE":"LARGE","PERIAPSIS":"561.367","OBJECT_ID":"2022-099AQ","DECAY_DATE":null,"BSTAR":"-0.00173760000000","SEMIMAJOR_AXIS":"6941.148","EPOCH":"2022-10-30T22:00:01.999584","CLASSIFICATION_TYPE":"U","OBJECT_TYPE":"PAYLOAD","NORAD_CAT_ID":"53503","APOAPSIS":"564.660","SITE":"AFWTR","MEAN_MOTION":"15.01259510","ELEMENT_SET_NO":"999","LAUNCH_DATE":"2022-08-12","TIME_SYSTEM":"UTC","REV_AT_EPOCH":"130","OBJECT_NAME":"STARLINK-4461"},{"EPOCH":"2022-10-30T22:00:01.999584","SEMIMAJOR_AXIS":"6941.133","OBJECT_TYPE":"PAYLOAD","CLASSIFICATION_TYPE":"U","DECAY_DATE":null,"OBJECT_ID":"2022-099AR","BSTAR":"-0.00149280000000","TIME_SYSTEM":"UTC","LAUNCH_DATE":"2022-08-12","ELEMENT_SET_NO":"999","SITE":"AFWTR","MEAN_MOTION":"15.01264404","OBJECT_NAME":"STARLINK-4448","REV_AT_EPOCH":"130","NORAD_CAT_ID":"53504","APOAPSIS":"564.848","COUNTRY_CODE":"US","TLE_LINE2":"2 53504  97.6558  63.2802 0002665  35.1180 216.1318 15.01264404  1300","GP_ID":"216532421","FILE":"3637924","TLE_LINE1":"1 53504U 22099AR  22303.91668981 -.00019184  00000-0 -14928-2 0  9998","RA_OF_ASC_NODE":"63.2802","REF_FRAME":"TEME","PERIAPSIS":"561.148","RCS_SIZE":"LARGE","MEAN_MOTION_DDOT":"0.0000000000000","MEAN_MOTION_DOT":"-0.00019184","ECCENTRICITY":"0.00026650","MEAN_ELEMENT_THEORY":"SGP4","EPHEMERIS_TYPE":"0","ARG_OF_PERICENTER":"35.1180","CENTER_NAME":"EARTH","PERIOD":"95.919","INCLINATION":"97.6558","MEAN_ANOMALY":"216.1318"},{"RA_OF_ASC_NODE":"63.2807","COUNTRY_CODE":"US","TLE_LINE2":"2 53505  97.6567  63.2807 0002198  49.9360 241.2937 15.01283052  1306","GP_ID":"216531254","FILE":"3637924","TLE_LINE1":"1 53505U 22099AS  22303.91668981 -.00051247  00000-0 -40117-2 0  9994","MEAN_ELEMENT_THEORY":"SGP4","ARG_OF_PERICENTER":"49.9360","EPHEMERIS_TYPE":"0","CENTER_NAME":"EARTH","PERIOD":"95.918","MEAN_ANOMALY":"241.2937","INCLINATION":"97.6567","REF_FRAME":"TEME","PERIAPSIS":"561.415","RCS_SIZE":"LARGE","MEAN_MOTION_DDOT":"0.0000000000000","MEAN_MOTION_DOT":"-0.00051247","ECCENTRICITY":"0.00021980","DECAY_DATE":null,"OBJECT_ID":"2022-099AS","BSTAR":"-0.00401170000000","EPOCH":"2022-10-30T22:00:01.999584","SEMIMAJOR_AXIS":"6941.076","OBJECT_TYPE":"PAYLOAD","CLASSIFICATION_TYPE":"U","NORAD_CAT_ID":"53505","APOAPSIS":"564.466","TIME_SYSTEM":"UTC","LAUNCH_DATE":"2022-08-12","SITE":"AFWTR","ELEMENT_SET_NO":"999","MEAN_MOTION":"15.01283052","OBJECT_NAME":"STARLINK-4446","REV_AT_EPOCH":"130"},{"NORAD_CAT_ID":"53506","APOAPSIS":"564.558","SITE":"AFWTR","ELEMENT_SET_NO":"999","MEAN_MOTION":"15.01261828","TIME_SYSTEM":"UTC","LAUNCH_DATE":"2022-08-12","REV_AT_EPOCH":"130","OBJECT_NAME":"STARLINK-4437","OBJECT_ID":"2022-099AT","DECAY_DATE":null,"BSTAR":"-0.00438660000000","SEMIMAJOR_AXIS":"6941.141","EPOCH":"2022-10-30T22:00:01.999584","OBJECT_TYPE":"PAYLOAD","CLASSIFICATION_TYPE":"U","EPHEMERIS_TYPE":"0","ARG_OF_PERICENTER":"41.0909","MEAN_ELEMENT_THEORY":"SGP4","PERIOD":"95.919","MEAN_ANOMALY":"238.7947","INCLINATION":"97.6566","CENTER_NAME":"EARTH","REF_FRAME":"TEME","ECCENTRICITY":"0.00022360","PERIAPSIS":"561.454","RCS_SIZE":"LARGE","MEAN_MOTION_DDOT":"0.0000000000000","MEAN_MOTION_DOT":"-0.00055962","RA_OF_ASC_NODE":"63.2837","FILE":"3637924","COUNTRY_CODE":"US","TLE_LINE2":"2 53506  97.6566  63.2837 0002236  41.0909 238.7947 15.01261828  1303","GP_ID":"216532264","TLE_LINE1":"1 53506U 22099AT  22303.91668981 -.00055962  00000-0 -43866-2 0  9997"},{"NORAD_CAT_ID":"53507","APOAPSIS":"564.428","TIME_SYSTEM":"UTC","LAUNCH_DATE":"2022-08-12","SITE":"AFWTR","ELEMENT_SET_NO":"999","MEAN_MOTION":"15.01288670","OBJECT_NAME":"STARLINK-4444","REV_AT_EPOCH":"130","DECAY_DATE":null,"OBJECT_ID":"2022-099AU","BSTAR":"-0.00594550000000","EPOCH":"2022-10-30T22:00:01.999584","SEMIMAJOR_AXIS":"6941.058","OBJECT_TYPE":"PAYLOAD","CLASSIFICATION_TYPE":"U","MEAN_ELEMENT_THEORY":"SGP4","EPHEMERIS_TYPE":"0","ARG_OF_PERICENTER":"50.2519","CENTER_NAME":"EARTH","PERIOD":"95.918","INCLINATION":"97.6566","MEAN_ANOMALY":"250.9942","REF_FRAME":"TEME","PERIAPSIS":"561.419","RCS_SIZE":"LARGE","MEAN_MOTION_DDOT":"0.0000000000000","MEAN_MOTION_DOT":"-0.00075672","ECCENTRICITY":"0.00021670","RA_OF_ASC_NODE":"63.2790","COUNTRY_CODE":"US","TLE_LINE2":"2 53507  97.6566  63.2790 0002167  50.2519 250.9942 15.01288670  1309","GP_ID":"216531418","FILE":"3637924","TLE_LINE1":"1 53507U 22099AU  22303.91668981 -.00075672  00000-0 -59455-2 0  9999"},{"APOAPSIS":"564.432","NORAD_CAT_ID":"53508","OBJECT_NAME":"STARLINK-4443","REV_AT_EPOCH":"130","TIME_SYSTEM":"UTC","LAUNCH_DATE":"2022-08-12","SITE":"AFWTR","ELEMENT_SET_NO":"999","MEAN_MOTION":"15.01301515","BSTAR":"-0.00528990000000","DECAY_DATE":null,"OBJECT_ID":"2022-099AV","OBJECT_TYPE":"PAYLOAD","CLASSIFICATION_TYPE":"U","EPOCH":"2022-10-30T22:00:01.999584","SEMIMAJOR_AXIS":"6941.019","CENTER_NAME":"EARTH","INCLINATION":"97.6560","PERIOD":"95.917","MEAN_ANOMALY":"239.6959","MEAN_ELEMENT_THEORY":"SGP4","EPHEMERIS_TYPE":"0","ARG_OF_PERICENTER":"41.5165","PERIAPSIS":"561.335","RCS_SIZE":"LARGE","MEAN_MOTION_DDOT":"0.0000000000000","MEAN_MOTION_DOT":"-0.00067435","ECCENTRICITY":"0.00022310","REF_FRAME":"TEME","RA_OF_ASC_NODE":"63.2833","TLE_LINE1":"1 53508U 22099AV  22303.91668981 -.00067435  00000-0 -52899-2 0  9993","TLE_LINE2":"2 53508  97.6560  63.2833 0002231  41.5165 239.6959 15.01301515  1300","COUNTRY_CODE":"US","GP_ID":"216532163","FILE":"3637924"},{"SEMIMAJOR_AXIS":"6941.148","EPOCH":"2022-10-30T22:00:01.999584","OBJECT_TYPE":"PAYLOAD","CLASSIFICATION_TYPE":"U","OBJECT_ID":"2022-099AW","DECAY_DATE":null,"BSTAR":"-0.00323450000000","ELEMENT_SET_NO":"999","SITE":"AFWTR","MEAN_MOTION":"15.01259648","TIME_SYSTEM":"UTC","LAUNCH_DATE":"2022-08-12","REV_AT_EPOCH":"130","OBJECT_NAME":"STARLINK-4402","NORAD_CAT_ID":"53509","APOAPSIS":"564.475","FILE":"3637924","COUNTRY_CODE":"US","TLE_LINE2":"2 53509  97.6565  63.2801 0002106  50.1365 269.7563 15.01259648  1304","GP_ID":"216531672","TLE_LINE1":"1 53509U 22099AW  22303.91668981 -.00041362  00000-0 -32345-2 0  9999","RA_OF_ASC_NODE":"63.2801","REF_FRAME":"TEME","ECCENTRICITY":"0.00021060","RCS_SIZE":"LARGE","PERIAPSIS":"561.551","MEAN_MOTION_DOT":"-0.00041362","MEAN_MOTION_DDOT":"0.0000000000000","ARG_OF_PERICENTER":"50.1365","EPHEMERIS_TYPE":"0","MEAN_ELEMENT_THEORY":"SGP4","MEAN_ANOMALY":"269.7563","PERIOD":"95.919","INCLINATION":"97.6565","CENTER_NAME":"EARTH"}];
